start=new Date('2022-10-29T00:00:00.000Z').valueOf();
sats=[{"APOAPSIS":"548.795","RA_OF_ASC_NODE":"295.3683","MEAN_MOTION_DOT":"0.00017378","FILE":"3636776","TLE_LINE1":"1 48442U 21040Q   22301.46014210  .00017378  00000-0  11815-2 0  9999","LAUNCH_DATE":"2021-05-09","SEMIMAJOR_AXIS":"6925.239","OBJECT_NAME":"STARLINK-2644","MEAN_ELEMENT_THEORY":"SGP4","CENTER_NAME":"EARTH","COUNTRY_CODE":"US","TIME_SYSTEM":"UTC","SITE":"AFETR","PERIOD":"95.590","CLASSIFICATION_TYPE":"U","MEAN_MOTION":"15.06435689","OBJECT_TYPE":"PAYLOAD","NORAD_CAT_ID":"48442","ARG_OF_PERICENTER":"45.9221","EPOCH":"2022-10-28T11:02:36.277440","MEAN_ANOMALY":"314.1968","REV_AT_EPOCH":"8150","EPHEMERIS_TYPE":"0","RCS_SIZE":"LARGE","REF_FRAME":"TEME","OBJECT_ID":"2021-040Q","ECCENTRICITY":"0.00024410","TLE_LINE2":"2 48442  53.0538 295.3683 0002441  45.9221 314.1968 15.06435689 81501","MEAN_MOTION_DDOT":"0.0000000000000","DECAY_DATE":null,"GP_ID":"216374691","INCLINATION":"53.0538","BSTAR":"0.00118150000000","ELEMENT_SET_NO":"999","PERIAPSIS":"545.414"},{"INCLINATION":"53.0535","BSTAR":"0.00028343000000","PERIAPSIS":"545.657","ELEMENT_SET_NO":"999","DECAY_DATE":null,"GP_ID":"216406442","MEAN_MOTION_DDOT":"0.0000000000000","TLE_LINE2":"2 48443  53.0535 294.1914 0002208  53.2223 306.8969 15.06408797 81541","ECCENTRICITY":"0.00022080","REF_FRAME":"TEME","OBJECT_ID":"2021-040R","RCS_SIZE":"LARGE","REV_AT_EPOCH":"8154","EPHEMERIS_TYPE":"0","ARG_OF_PERICENTER":"53.2223","MEAN_ANOMALY":"306.8969","NORAD_CAT_ID":"48443","EPOCH":"2022-10-28T17:19:25.920192","OBJECT_TYPE":"PAYLOAD","MEAN_MOTION":"15.06408797","CLASSIFICATION_TYPE":"U","PERIOD":"95.592","TIME_SYSTEM":"UTC","SITE":"AFETR","COUNTRY_CODE":"US","CENTER_NAME":"EARTH","SEMIMAJOR_AXIS":"6925.322","OBJECT_NAME":"STARLINK-2663","MEAN_ELEMENT_THEORY":"SGP4","LAUNCH_DATE":"2021-05-09","FILE":"3637111","TLE_LINE1":"1 48443U 21040R   22301.72182778  .00003943  00000-0  28343-3 0  9992","RA_OF_ASC_NODE":"294.1914","MEAN_MOTION_DOT":"0.00003943","APOAPSIS":"548.716"},{"COUNTRY_CODE":"US","SITE":"AFETR","TIME_SYSTEM":"UTC","TLE_LINE1":"1 48444U 21040S   22301.71813408  .00001648  00000-0  12948-3 0  9997","FILE":"3637111","LAUNCH_DATE":"2021-05-09","APOAPSIS":"548.661","MEAN_MOTION_DOT":"0.00001648","RA_OF_ASC_NODE":"294.2050","CENTER_NAME":"EARTH","MEAN_ELEMENT_THEORY":"SGP4","OBJECT_NAME":"STARLINK-2645","SEMIMAJOR_AXIS":"6925.309","ECCENTRICITY":"0.00021470","MEAN_MOTION_DDOT":"0.0000000000000","TLE_LINE2":"2 48444  53.0542 294.2050 0002147  35.7609 324.3523 15.06412798 81544","RCS_SIZE":"LARGE","OBJECT_ID":"2021-040S","REF_FRAME":"TEME","ELEMENT_SET_NO":"999","PERIAPSIS":"545.687","INCLINATION":"53.0542","BSTAR":"0.00012948000000","GP_ID":"216406692","DECAY_DATE":null,"MEAN_MOTION":"15.06412798","CLASSIFICATION_TYPE":"U","OBJECT_TYPE":"PAYLOAD","PERIOD":"95.591","EPHEMERIS_TYPE":"0","REV_AT_EPOCH":"8154","NORAD_CAT_ID":"48444","ARG_OF_PERICENTER":"35.7609","MEAN_ANOMALY":"324.3523","EPOCH":"2022-10-28T17:14:06.784512"},{"TIME_SYSTEM":"UTC","SITE":"AFETR","COUNTRY_CODE":"US","SEMIMAJOR_AXIS":"6925.313","OBJECT_NAME":"STARLINK-2634","MEAN_ELEMENT_THEORY":"SGP4","CENTER_NAME":"EARTH","APOAPSIS":"548.792","RA_OF_ASC_NODE":"296.3037","MEAN_MOTION_DOT":"0.00001626","FILE":"3636776","TLE_LINE1":"1 48445U 21040T   22301.25002461  .00001626  00000-0  12799-3 0  9996","LAUNCH_DATE":"2021-05-09","GP_ID":"216373941","DECAY_DATE":null,"BSTAR":"0.00012799000000","INCLINATION":"53.0536","PERIAPSIS":"545.565","ELEMENT_SET_NO":"999","RCS_SIZE":"LARGE","REF_FRAME":"TEME","OBJECT_ID":"2021-040T","ECCENTRICITY":"0.00023300","TLE_LINE2":"2 48445  53.0536 296.3037 0002330  35.7493 324.3651 15.06411487 81479","MEAN_MOTION_DDOT":"0.0000000000000","ARG_OF_PERICENTER":"35.7493","MEAN_ANOMALY":"324.3651","EPOCH":"2022-10-28T06:00:02.126304","NORAD_CAT_ID":"48445","REV_AT_EPOCH":"8147","EPHEMERIS_TYPE":"0","PERIOD":"95.591","CLASSIFICATION_TYPE":"U","MEAN_MOTION":"15.06411487","OBJECT_TYPE":"PAYLOAD"},{"COUNTRY_CODE":"US","SITE":"AFETR","TIME_SYSTEM":"UTC","LAUNCH_DATE":"2021-05-09","TLE_LINE1":"1 48446U 21040U   22301.31268680  .00001925  00000-0  14810-3 0  9999","FILE":"3636776","MEAN_MOTION_DOT":"0.00001925","RA_OF_ASC_NODE":"296.0310","APOAPSIS":"549.043","CENTER_NAME":"EARTH","MEAN_ELEMENT_THEORY":"SGP4","OBJECT_NAME":"STARLINK-2247","SEMIMAJOR_AXIS":"6925.349","TLE_LINE2":"2 48446  53.0537 296.0310 0002641  42.6001 317.5193 15.06399780 81486","MEAN_MOTION_DDOT":"0.0000000000000","ECCENTRICITY":"0.00026410","OBJECT_ID":"2021-040U","REF_FRAME":"TEME","RCS_SIZE":"LARGE","PERIAPSIS":"545.385","ELEMENT_SET_NO":"999","INCLINATION":"53.0537","BSTAR":"0.00014810000000","GP_ID":"216374191","DECAY_DATE":null,"OBJECT_TYPE":"PAYLOAD","MEAN_MOTION":"15.06399780","CLASSIFICATION_TYPE":"U","PERIOD":"95.592","REV_AT_EPOCH":"8148","EPHEMERIS_TYPE":"0","EPOCH":"2022-10-28T07:30:16.139520","MEAN_ANOMALY":"317.5193","ARG_OF_PERICENTER":"42.6001","NORAD_CAT_ID":"48446"},{"SITE":"AFETR","TIME_SYSTEM":"UTC","COUNTRY_CODE":"US","CENTER_NAME":"EARTH","OBJECT_NAME":"STARLINK-2269","MEAN_ELEMENT_THEORY":"SGP4","SEMIMAJOR_AXIS":"6925.286","TLE_LINE1":"1 48447U 21040V   22301.70708942  .00003398  00000-0  24682-3 0  9997","FILE":"3637111","LAUNCH_DATE":"2021-05-09","APOAPSIS":"548.751","MEAN_MOTION_DOT":"0.00003398","RA_OF_ASC_NODE":"294.2581","ELEMENT_SET_NO":"999","PERIAPSIS":"545.550","INCLINATION":"53.0534","BSTAR":"0.00024682000000","GP_ID":"216406942","DECAY_DATE":null,"ECCENTRICITY":"0.00023110","MEAN_MOTION_DDOT":"0.0000000000000","TLE_LINE2":"2 48447  53.0534 294.2581 0002311  45.1435 314.9741 15.06420435 81546","RCS_SIZE":"LARGE","OBJECT_ID":"2021-040V","REF_FRAME":"TEME","EPHEMERIS_TYPE":"0","REV_AT_EPOCH":"8154","EPOCH":"2022-10-28T16:58:12.525888","ARG_OF_PERICENTER":"45.1435","MEAN_ANOMALY":"314.9741","NORAD_CAT_ID":"48447","CLASSIFICATION_TYPE":"U","MEAN_MOTION":"15.06420435","OBJECT_TYPE":"PAYLOAD","PERIOD":"95.591"},{"SITE":"AFETR","TIME_SYSTEM":"UTC","COUNTRY_CODE":"US","OBJECT_NAME":"STARLINK-2632","MEAN_ELEMENT_THEORY":"SGP4","SEMIMAJOR_AXIS":"6925.348","CENTER_NAME":"EARTH","APOAPSIS":"548.993","MEAN_MOTION_DOT":"0.00001808","RA_OF_ASC_NODE":"295.6324","TLE_LINE1":"1 48448U 21040W   22301.40020682  .00001808  00000-0  14028-3 0  9990","FILE":"3636776","LAUNCH_DATE":"2021-05-09","DECAY_DATE":null,"GP_ID":"216375193","ELEMENT_SET_NO":"999","PERIAPSIS":"545.433","BSTAR":"0.00014028000000","INCLINATION":"53.0542","RCS_SIZE":"LARGE","OBJECT_ID":"2021-040W","REF_FRAME":"TEME","ECCENTRICITY":"0.00025700","TLE_LINE2":"2 48448  53.0542 295.6324 0002570  36.9175 323.1990 15.06400221 81495","MEAN_MOTION_DDOT":"0.0000000000000","MEAN_ANOMALY":"323.1990","ARG_OF_PERICENTER":"36.9175","EPOCH":"2022-10-28T09:36:17.869248","NORAD_CAT_ID":"48448","REV_AT_EPOCH":"8149","EPHEMERIS_TYPE":"0","PERIOD":"95.592","MEAN_MOTION":"15.06400221","CLASSIFICATION_TYPE":"U","OBJECT_TYPE":"PAYLOAD"},{"COUNTRY_CODE":"US","SITE":"AFETR","TIME_SYSTEM":"UTC","LAUNCH_DATE":"2021-05-09","TLE_LINE1":"1 48449U 21040X   22301.30532594  .00003670  00000-0  26503-3 0  9990","FILE":"3637001","MEAN_MOTION_DOT":"0.00003670","RA_OF_ASC_NODE":"296.0591","APOAPSIS":"548.799","CENTER_NAME":"EARTH","MEAN_ELEMENT_THEORY":"SGP4","OBJECT_NAME":"STARLINK-2655","SEMIMAJOR_AXIS":"6925.284","TLE_LINE2":"2 48449  53.0527 296.0591 0002383  47.0454 313.0734 15.06421155 82769","MEAN_MOTION_DDOT":"0.0000000000000","ECCENTRICITY":"0.00023830","OBJECT_ID":"2021-040X","REF_FRAME":"TEME","RCS_SIZE":"LARGE","PERIAPSIS":"545.498","ELEMENT_SET_NO":"999","INCLINATION":"53.0527","BSTAR":"0.00026503000000","GP_ID":"216383048","DECAY_DATE":null,"OBJECT_TYPE":"PAYLOAD","CLASSIFICATION_TYPE":"U","MEAN_MOTION":"15.06421155","PERIOD":"95.591","REV_AT_EPOCH":"8276","EPHEMERIS_TYPE":"0","MEAN_ANOMALY":"313.0734","EPOCH":"2022-10-28T07:19:40.161216","NORAD_CAT_ID":"48449","ARG_OF_PERICENTER":"47.0454"},{"MEAN_ANOMALY":"320.1442","ARG_OF_PERICENTER":"39.9747","EPOCH":"2022-10-28T16:47:34.934496","NORAD_CAT_ID":"48450","EPHEMERIS_TYPE":"0","REV_AT_EPOCH":"8154","PERIOD":"95.592","OBJECT_TYPE":"PAYLOAD","MEAN_MOTION":"15.06403151","CLASSIFICATION_TYPE":"U","GP_ID":"216408193","DECAY_DATE":null,"PERIAPSIS":"545.319","ELEMENT_SET_NO":"999","INCLINATION":"53.0550","BSTAR":"0.00019974000000","OBJECT_ID":"2021-040Y","REF_FRAME":"TEME","RCS_SIZE":"LARGE","TLE_LINE2":"2 48450  53.0550 294.2837 0002722  39.9747 320.1442 15.06403151 81548","MEAN_MOTION_DDOT":"0.0000000000000","ECCENTRICITY":"0.00027220","OBJECT_NAME":"STARLINK-2660","MEAN_ELEMENT_THEORY":"SGP4","SEMIMAJOR_AXIS":"6925.339","CENTER_NAME":"EARTH","MEAN_MOTION_DOT":"0.00002695","RA_OF_ASC_NODE":"294.2837","APOAPSIS":"549.089","LAUNCH_DATE":"2021-05-09","TLE_LINE1":"1 48450U 21040Y   22301.69970989  .00002695  00000-0  19974-3 0  9998","FILE":"3637111","SITE":"AFETR","TIME_SYSTEM":"UTC","COUNTRY_CODE":"US"},{"FILE":"3637111","TLE_LINE1":"1 48451U 21040Z   22301.69877435  .00000615  00000-0  60208-4 0  9998","LAUNCH_DATE":"2021-05-09","APOAPSIS":"548.688","RA_OF_ASC_NODE":"294.3245","MEAN_MOTION_DOT":"0.00000615","CENTER_NAME":"EARTH","SEMIMAJOR_AXIS":"6925.326","MEAN_ELEMENT_THEORY":"SGP4","OBJECT_NAME":"STARLINK-2652","COUNTRY_CODE":"US","TIME_SYSTEM":"UTC","SITE":"AFETR","CLASSIFICATION_TYPE":"U","MEAN_MOTION":"15.06407203","OBJECT_TYPE":"PAYLOAD","PERIOD":"95.592","EPHEMERIS_TYPE":"0","REV_AT_EPOCH":"8154","MEAN_ANOMALY":"306.3578","ARG_OF_PERICENTER":"53.7610","EPOCH":"2022-10-28T16:46:14.103840","NORAD_CAT_ID":"48451","ECCENTRICITY":"0.00021610","TLE_LINE2":"2 48451  53.0542 294.3245 0002161  53.7610 306.3578 15.06407203 81542","MEAN_MOTION_DDOT":"0.0000000000000","RCS_SIZE":"LARGE","REF_FRAME":"TEME","OBJECT_ID":"2021-040Z","INCLINATION":"53.0542","BSTAR":"0.00006020800000","ELEMENT_SET_NO":"999","PERIAPSIS":"545.695","DECAY_DATE":null,"GP_ID":"216406443"}];
